[{"OBJECT_NAME":"STARLINK-30335","OBJECT_ID":"2023-129N","EPOCH":"2026-01-17T18:33:40.670496","MEAN_MOTION":15.02537249,"ECCENTRICITY":0.00011508,"INCLINATION":43.0038,"RA_OF_ASC_NODE":37.0994,"ARG_OF_PERICENTER":276.5605,"MEAN_ANOMALY":83.5107,"EPHEMERIS_TYPE":0,"CLASSIFICATION_TYPE":"U","NORAD_CAT_ID":57710,"ELEMENT_SET_NO":999,"REV_AT_EPOCH":13299,"BSTAR":-5.614749e-6,"MEAN_MOTION_DOT":-2.79e-6,"MEAN_MOTION_DDOT":0},{"OBJECT_NAME":"STARLINK-30318","OBJECT_ID":"2023-129P","EPOCH":"2026-01-17T10:49:25.166208","MEAN_MOTION":15.02537937,"ECCENTRICITY":0.00013037,"INCLINATION":43.0049,"RA_OF_ASC_NODE":38.9681,"ARG_OF_PERICENTER":268.9503,"MEAN_ANOMALY":91.119,"EPHEMERIS_TYPE":0,"CLASSIFICATION_TYPE":"U","NORAD_CAT_ID":57711,"ELEMENT_SET_NO":999,"REV_AT_EPOCH":13280,"BSTAR":2.7953611e-5,"MEAN_MOTION_DOT":1.74e-6,"MEAN_MOTION_DDOT":0},{"OBJECT_NAME":"STARLINK-30348","OBJECT_ID":"2023-129Q","EPOCH":"2026-01-17T18:19:17.795424","MEAN_MOTION":15.02535714,"ECCENTRICITY":0.00014148,"INCLINATION":43.0045,"RA_OF_ASC_NODE":37.0258,"ARG_OF_PERICENTER":284.6951,"MEAN_ANOMALY":75.3734,"EPHEMERIS_TYPE":0,"CLASSIFICATION_TYPE":"U","NORAD_CAT_ID":57712,"ELEMENT_SET_NO":999,"REV_AT_EPOCH":13299,"BSTAR":9.61099e-6,"MEAN_MOTION_DOT":-7.4e-7,"MEAN_MOTION_DDOT":0},{"OBJECT_NAME":"STARLINK-30349","OBJECT_ID":"2023-129R","EPOCH":"2026-01-17T18:09:42.558912","MEAN_MOTION":15.02535665,"ECCENTRICITY":9.596e-5,"INCLINATION":43.0029,"RA_OF_ASC_NODE":36.9744,"ARG_OF_PERICENTER":279.0942,"MEAN_ANOMALY":80.9792,"EPHEMERIS_TYPE":0,"CLASSIFICATION_TYPE":"U","NORAD_CAT_ID":57713,"ELEMENT_SET_NO":999,"REV_AT_EPOCH":13285,"BSTAR":-4.5284441e-5,"MEAN_MOTION_DOT":-8.15e-6,"MEAN_MOTION_DDOT":0},{"OBJECT_NAME":"STARLINK-30341","OBJECT_ID":"2023-129S","EPOCH":"2026-01-17T17:36:07.959744","MEAN_MOTION":15.02541857,"ECCENTRICITY":0.0001579,"INCLINATION":43.0052,"RA_OF_ASC_NODE":36.801,"ARG_OF_PERICENTER":282.8543,"MEAN_ANOMALY":77.2123,"EPHEMERIS_TYPE":0,"CLASSIFICATION_TYPE":"U","NORAD_CAT_ID":57714,"ELEMENT_SET_NO":999,"REV_AT_EPOCH":13299,"BSTAR":3.8892634e-5,"MEAN_MOTION_DOT":3.22e-6,"MEAN_MOTION_DDOT":0},{"OBJECT_NAME":"STARLINK-30300","OBJECT_ID":"2023-129T","EPOCH":"2026-01-17T08:49:43.187808","MEAN_MOTION":15.02537341,"ECCENTRICITY":9.426e-5,"INCLINATION":43.0035,"RA_OF_ASC_NODE":39.2176,"ARG_OF_PERICENTER":278.5445,"MEAN_ANOMALY":81.5291,"EPHEMERIS_TYPE":0,"CLASSIFICATION_TYPE":"U","NORAD_CAT_ID":57715,"ELEMENT_SET_NO":999,"REV_AT_EPOCH":13293,"BSTAR":2.2536506e-5,"MEAN_MOTION_DOT":1.01e-6,"MEAN_MOTION_DDOT":0},{"OBJECT_NAME":"STARLINK-30281","OBJECT_ID":"2023-129U","EPOCH":"2026-01-17T17:55:19.195680","MEAN_MOTION":15.0253732,"ECCENTRICITY":0.00013965,"INCLINATION":43.0036,"RA_OF_ASC_NODE":36.8998,"ARG_OF_PERICENTER":279.4618,"MEAN_ANOMALY":80.6066,"EPHEMERIS_TYPE":0,"CLASSIFICATION_TYPE":"U","NORAD_CAT_ID":57716,"ELEMENT_SET_NO":999,"REV_AT_EPOCH":13285,"BSTAR":-1.0004414e-5,"MEAN_MOTION_DOT":-3.39e-6,"MEAN_MOTION_DDOT":0},{"OBJECT_NAME":"STARLINK-30325","OBJECT_ID":"2023-129V","EPOCH":"2026-01-17T18:14:29.402592","MEAN_MOTION":15.02538547,"ECCENTRICITY":0.00013468,"INCLINATION":43.0056,"RA_OF_ASC_NODE":37.0009,"ARG_OF_PERICENTER":275.4477,"MEAN_ANOMALY":84.6212,"EPHEMERIS_TYPE":0,"CLASSIFICATION_TYPE":"U","NORAD_CAT_ID":57717,"ELEMENT_SET_NO":999,"REV_AT_EPOCH":13299,"BSTAR":0.00011991079,"MEAN_MOTION_DOT":1.417e-5,"MEAN_MOTION_DDOT":0},{"OBJECT_NAME":"STARLINK-30338","OBJECT_ID":"2023-129W","EPOCH":"2026-01-17T18:00:07.778592","MEAN_MOTION":15.0251884,"ECCENTRICITY":9.555e-5,"INCLINATION":43.0029,"RA_OF_ASC_NODE":36.9244,"ARG_OF_PERICENTER":274.0035,"MEAN_ANOMALY":86.0698,"EPHEMERIS_TYPE":0,"CLASSIFICATION_TYPE":"U","NORAD_CAT_ID":57718,"ELEMENT_SET_NO":999,"REV_AT_EPOCH":13299,"BSTAR":0.00036303357,"MEAN_MOTION_DOT":4.701e-5,"MEAN_MOTION_DDOT":0},{"OBJECT_NAME":"STARLINK-30334","OBJECT_ID":"2023-129X","EPOCH":"2026-01-17T18:04:54.685344","MEAN_MOTION":15.02535539,"ECCENTRICITY":0.00013152,"INCLINATION":43.0046,"RA_OF_ASC_NODE":36.9504,"ARG_OF_PERICENTER":273.0544,"MEAN_ANOMALY":87.0148,"EPHEMERIS_TYPE":0,"CLASSIFICATION_TYPE":"U","NORAD_CAT_ID":57719,"ELEMENT_SET_NO":999,"REV_AT_EPOCH":13285,"BSTAR":4.6264832e-5,"MEAN_MOTION_DOT":4.21e-6,"MEAN_MOTION_DDOT":0},{"OBJECT_NAME":"STARLINK-30375","OBJECT_ID":"2023-131A","EPOCH":"2026-01-17T10:53:02.684256","MEAN_MOTION":15.02537899,"ECCENTRICITY":0.00014144,"INCLINATION":43.0046,"RA_OF_ASC_NODE":77.7026,"ARG_OF_PERICENTER":269.8784,"MEAN_ANOMALY":90.1897,"EPHEMERIS_TYPE":0,"CLASSIFICATION_TYPE":"U","NORAD_CAT_ID":57732,"ELEMENT_SET_NO":999,"REV_AT_EPOCH":13237,"BSTAR":1.3691299e-5,"MEAN_MOTION_DOT":-1.9e-7,"MEAN_MOTION_DDOT":0},{"OBJECT_NAME":"STARLINK-30310","OBJECT_ID":"2023-131B","EPOCH":"2026-01-17T11:13:14.265408","MEAN_MOTION":15.02539679,"ECCENTRICITY":0.00017124,"INCLINATION":43.0039,"RA_OF_ASC_NODE":89.7193,"ARG_OF_PERICENTER":269.0721,"MEAN_ANOMALY":90.9925,"EPHEMERIS_TYPE":0,"CLASSIFICATION_TYPE":"U","NORAD_CAT_ID":57733,"ELEMENT_SET_NO":999,"REV_AT_EPOCH":13223,"BSTAR":3.7544322e-5,"MEAN_MOTION_DOT":3.03e-6,"MEAN_MOTION_DDOT":0},{"OBJECT_NAME":"STARLINK-30365","OBJECT_ID":"2023-131C","EPOCH":"2026-01-17T21:40:24.344256","MEAN_MOTION":15.02496804,"ECCENTRICITY":0.00012101,"INCLINATION":43.0025,"RA_OF_ASC_NODE":87.7986,"ARG_OF_PERICENTER":275.5932,"MEAN_ANOMALY":84.4773,"EPHEMERIS_TYPE":0,"CLASSIFICATION_TYPE":"U","NORAD_CAT_ID":57734,"ELEMENT_SET_NO":999,"REV_AT_EPOCH":13228,"BSTAR":-0.00030746596,"MEAN_MOTION_DOT":-4.35e-5,"MEAN_MOTION_DDOT":0},{"OBJECT_NAME":"STARLINK-30371","OBJECT_ID":"2023-131D","EPOCH":"2026-01-17T21:06:46.702944","MEAN_MOTION":15.02542404,"ECCENTRICITY":0.00012332,"INCLINATION":43.0043,"RA_OF_ASC_NODE":87.6531,"ARG_OF_PERICENTER":268.8151,"MEAN_ANOMALY":91.255,"EPHEMERIS_TYPE":0,"CLASSIFICATION_TYPE":"U","NORAD_CAT_ID":57735,"ELEMENT_SET_NO":999,"REV_AT_EPOCH":13228,"BSTAR":7.0370658e-5,"MEAN_MOTION_DOT":7.47e-6,"MEAN_MOTION_DDOT":0},{"OBJECT_NAME":"STARLINK-30352","OBJECT_ID":"2023-131E","EPOCH":"2026-01-17T06:30:51.015456","MEAN_MOTION":15.02537028,"ECCENTRICITY":0.00011774,"INCLINATION":43.0027,"RA_OF_ASC_NODE":90.825,"ARG_OF_PERICENTER":255.7061,"MEAN_ANOMALY":104.3651,"EPHEMERIS_TYPE":0,"CLASSIFICATION_TYPE":"U","NORAD_CAT_ID":57736,"ELEMENT_SET_NO":999,"REV_AT_EPOCH":13219,"BSTAR":-7.341412e-6,"MEAN_MOTION_DOT":-3.03e-6,"MEAN_MOTION_DDOT":0},{"OBJECT_NAME":"STARLINK-30344","OBJECT_ID":"2023-131F","EPOCH":"2026-01-17T21:24:21.729888","MEAN_MOTION":15.02539514,"ECCENTRICITY":0.00014393,"INCLINATION":43.0046,"RA_OF_ASC_NODE":87.752,"ARG_OF_PERICENTER":271.8307,"MEAN_ANOMALY":88.237,"EPHEMERIS_TYPE":0,"CLASSIFICATION_TYPE":"U","NORAD_CAT_ID":57737,"ELEMENT_SET_NO":999,"REV_AT_EPOCH":13228,"BSTAR":7.3500577e-5,"MEAN_MOTION_DOT":7.89e-6,"MEAN_MOTION_DDOT":0},{"OBJECT_NAME":"STARLINK-30351","OBJECT_ID":"2023-131G","EPOCH":"2026-01-17T21:54:43.629408","MEAN_MOTION":15.02542293,"ECCENTRICITY":0.00013589,"INCLINATION":43.0056,"RA_OF_ASC_NODE":87.9054,"ARG_OF_PERICENTER":271.3358,"MEAN_ANOMALY":88.7329,"EPHEMERIS_TYPE":0,"CLASSIFICATION_TYPE":"U","NORAD_CAT_ID":57738,"ELEMENT_SET_NO":999,"REV_AT_EPOCH":13228,"BSTAR":3.150757e-5,"MEAN_MOTION_DOT":2.22e-6,"MEAN_MOTION_DDOT":0},{"OBJECT_NAME":"STARLINK-30242","OBJECT_ID":"2023-131H","EPOCH":"2026-01-17T09:28:52.837536","MEAN_MOTION":15.02537035,"ECCENTRICITY":0.00012466,"INCLINATION":43.0013,"RA_OF_ASC_NODE":65.1424,"ARG_OF_PERICENTER":267.9231,"MEAN_ANOMALY":92.1468,"EPHEMERIS_TYPE":0,"CLASSIFICATION_TYPE":"U","NORAD_CAT_ID":57739,"ELEMENT_SET_NO":999,"REV_AT_EPOCH":13250,"BSTAR":-2.34633e-7,"MEAN_MOTION_DOT":-2.07e-6,"MEAN_MOTION_DDOT":0},{"OBJECT_NAME":"STARLINK-30331","OBJECT_ID":"2023-131J","EPOCH":"2026-01-17T08:30:39.511872","MEAN_MOTION":15.27580647,"ECCENTRICITY":8.389e-5,"INCLINATION":43.0027,"RA_OF_ASC_NODE":29.3137,"ARG_OF_PERICENTER":246.3641,"MEAN_ANOMALY":113.7123,"EPHEMERIS_TYPE":0,"CLASSIFICATION_TYPE":"U","NORAD_CAT_ID":57740,"ELEMENT_SET_NO":999,"REV_AT_EPOCH":13292,"BSTAR":6.3420142e-5,"MEAN_MOTION_DOT":1.484e-5,"MEAN_MOTION_DDOT":0},{"OBJECT_NAME":"STARLINK-30364","OBJECT_ID":"2023-131K","EPOCH":"2026-01-17T21:30:46.024992","MEAN_MOTION":15.02548304,"ECCENTRICITY":0.0001479,"INCLINATION":43.0003,"RA_OF_ASC_NODE":87.7813,"ARG_OF_PERICENTER":277.3668,"MEAN_ANOMALY":82.7007,"EPHEMERIS_TYPE":0,"CLASSIFICATION_TYPE":"U","NORAD_CAT_ID":57741,"ELEMENT_SET_NO":999,"REV_AT_EPOCH":13228,"BSTAR":-4.6632e-6,"MEAN_MOTION_DOT":-2.67e-6,"MEAN_MOTION_DDOT":0},{"OBJECT_NAME":"STARLINK-30308","OBJECT_ID":"2023-131L","EPOCH":"2026-01-17T21:49:55.839648","MEAN_MOTION":15.02539724,"ECCENTRICITY":0.00015654,"INCLINATION":43.004,"RA_OF_ASC_NODE":87.8799,"ARG_OF_PERICENTER":270.5711,"MEAN_ANOMALY":89.4952,"EPHEMERIS_TYPE":0,"CLASSIFICATION_TYPE":"U","NORAD_CAT_ID":57742,"ELEMENT_SET_NO":999,"REV_AT_EPOCH":13229,"BSTAR":0.00014057879,"MEAN_MOTION_DOT":1.696e-5,"MEAN_MOTION_DDOT":0},{"OBJECT_NAME":"STARLINK-30361","OBJECT_ID":"2023-131M","EPOCH":"2026-01-17T21:25:58.135008","MEAN_MOTION":15.0253363,"ECCENTRICITY":0.00012603,"INCLINATION":43.0017,"RA_OF_ASC_NODE":87.7526,"ARG_OF_PERICENTER":271.0355,"MEAN_ANOMALY":89.0343,"EPHEMERIS_TYPE":0,"CLASSIFICATION_TYPE":"U","NORAD_CAT_ID":57743,"ELEMENT_SET_NO":999,"REV_AT_EPOCH":13228,"BSTAR":-3.020009e-5,"MEAN_MOTION_DOT":-6.11e-6,"MEAN_MOTION_DDOT":0},{"OBJECT_NAME":"STARLINK-30363","OBJECT_ID":"2023-131N","EPOCH":"2026-01-17T10:48:14.939424","MEAN_MOTION":15.02542513,"ECCENTRICITY":0.0001299,"INCLINATION":43.0025,"RA_OF_ASC_NODE":77.6762,"ARG_OF_PERICENTER":272.9524,"MEAN_ANOMALY":87.117,"EPHEMERIS_TYPE":0,"CLASSIFICATION_TYPE":"U","NORAD_CAT_ID":57744,"ELEMENT_SET_NO":999,"REV_AT_EPOCH":13236,"BSTAR":-1.0315385e-5,"MEAN_MOTION_DOT":-3.43e-6,"MEAN_MOTION_DDOT":0}]
